{
  "type": "FeatureCollection",
  "features": [
    {
      "type": "Feature",
      "properties": {
        "norad_id": 34964,
        "name": "COSMOS 2251 DEB",
        "group": "cosmos-2251-debris",
        "lat": -67.81139177491325,
        "lon": -172.78362033433964,
        "alt_km": 859.796098896215,
        "timestamp": "2025-12-27T08:36:18.780263+00:00",
        "meta_object_name": "COSMOS 2251 DEB",
        "meta_object_id": "1993-036AET",
        "meta_epoch": "2025-12-18T07:25:04.519776",
        "meta_mean_motion": 14.00628567,
        "meta_eccentricity": 0.02123167,
        "meta_inclination": 73.9712,
        "meta_ra_of_asc_node": 338.1457,
        "meta_arg_of_pericenter": 195.4091,
        "meta_mean_anomaly": 164.0515,
        "meta_ephemeris_type": 0,
        "meta_classification_type": "U",
        "meta_norad_cat_id": 34964,
        "meta_element_set_no": 999,
        "meta_rev_at_epoch": 84556,
        "meta_bstar": 0.00089791859,
        "meta_mean_motion_dot": 1.6e-05,
        "meta_mean_motion_ddot": 0,
        "tle_line1": "1 34964U 93036AET 25352.30908009  .00001600  00000+0  89792-3 0  9997",
        "tle_line2": "2 34964  73.9712 338.1457 0212316 195.4091 164.0515 14.00628567845561"
      },
      "geometry": {
        "type": "Point",
        "coordinates": [
          -172.78362033433964,
          -67.81139177491325
        ]
      }
    },
    {
      "type": "Feature",
      "properties": {
        "norad_id": 34965,
        "name": "COSMOS 2251 DEB",
        "group": "cosmos-2251-debris",
        "lat": -28.140623312147806,
        "lon": 92.30226007629186,
        "alt_km": 739.7955978501523,
        "timestamp": "2025-12-27T08:36:18.780273+00:00",
        "meta_object_name": "COSMOS 2251 DEB",
        "meta_object_id": "1993-036AEU",
        "meta_epoch": "2025-12-27T00:27:15.901920",
        "meta_mean_motion": 14.48744245,
        "meta_eccentricity": 0.0026338,
        "meta_inclination": 74.052,
        "meta_ra_of_asc_node": 101.7354,
        "meta_arg_of_pericenter": 227.1535,
        "meta_mean_anomaly": 132.7412,
        "meta_ephemeris_type": 0,
        "meta_classification_type": "U",
        "meta_norad_cat_id": 34965,
        "meta_element_set_no": 999,
        "meta_rev_at_epoch": 87320,
        "meta_bstar": 0.00040692,
        "meta_mean_motion_dot": 1.514e-05,
        "meta_mean_motion_ddot": 0,
        "tle_line1": "1 34965U 93036AEU 25361.01893405  .00001514  00000+0  40692-3 0  9999",
        "tle_line2": "2 34965  74.0520 101.7354 0026338 227.1535 132.7412 14.48744245873208"
      },
      "geometry": {
        "type": "Point",
        "coordinates": [
          92.30226007629186,
          -28.140623312147806
        ]
      }
    },
    {
      "type": "Feature",
      "properties": {
        "norad_id": 34967,
        "name": "COSMOS 2251 DEB",
        "group": "cosmos-2251-debris",
        "lat": 8.010609767056703,
        "lon": -131.09596614669437,
        "alt_km": 718.2165848117147,
        "timestamp": "2025-12-27T08:36:18.780283+00:00",
        "meta_object_name": "COSMOS 2251 DEB",
        "meta_object_id": "1993-036AEW",
        "meta_epoch": "2025-12-24T22:23:05.722368",
        "meta_mean_motion": 14.44316705,
        "meta_eccentricity": 0.0038667,
        "meta_inclination": 73.9924,
        "meta_ra_of_asc_node": 231.1127,
        "meta_arg_of_pericenter": 14.6551,
        "meta_mean_anomaly": 345.5717,
        "meta_ephemeris_type": 0,
        "meta_classification_type": "U",
        "meta_norad_cat_id": 34967,
        "meta_element_set_no": 999,
        "meta_rev_at_epoch": 65133,
        "meta_bstar": 0.00061268,
        "meta_mean_motion_dot": 2.1e-05,
        "meta_mean_motion_ddot": 0,
        "tle_line1": "1 34967U 93036AEW 25358.93270512  .00002100  00000+0  61268-3 0  9990",
        "tle_line2": "2 34967  73.9924 231.1127 0038667  14.6551 345.5717 14.44316705651339"
      },
      "geometry": {
        "type": "Point",
        "coordinates": [
          -131.09596614669437,
          8.010609767056703
        ]
      }
    },
    {
      "type": "Feature",
      "properties": {
        "norad_id": 34968,
        "name": "COSMOS 2251 DEB",
        "group": "cosmos-2251-debris",
        "lat": -57.82686989315998,
        "lon": -167.86354140173643,
        "alt_km": 652.6267608696362,
        "timestamp": "2025-12-27T08:36:18.780292+00:00",
        "meta_object_name": "COSMOS 2251 DEB",
        "meta_object_id": "1993-036AEX",
        "meta_epoch": "2025-12-26T21:22:00.377760",
        "meta_mean_motion": 14.59429118,
        "meta_eccentricity": 0.0087295,
        "meta_inclination": 74.0371,
        "meta_ra_of_asc_node": 220.0941,
        "meta_arg_of_pericenter": 336.9625,
        "meta_mean_anomaly": 22.7634,
        "meta_ephemeris_type": 0,
        "meta_classification_type": "U",
        "meta_norad_cat_id": 34968,
        "meta_element_set_no": 999,
        "meta_rev_at_epoch": 88684,
        "meta_bstar": 0.00015768,
        "meta_mean_motion_dot": 7.55e-06,
        "meta_mean_motion_ddot": 0,
        "tle_line1": "1 34968U 93036AEX 25360.89028215  .00000755  00000+0  15768-3 0  9998",
        "tle_line2": "2 34968  74.0371 220.0941 0087295 336.9625  22.7634 14.59429118886849"
      },
      "geometry": {
        "type": "Point",
        "coordinates": [
          -167.86354140173643,
          -57.82686989315998
        ]
      }
    },
    {
      "type": "Feature",
      "properties": {
        "norad_id": 34969,
        "name": "COSMOS 2251 DEB",
        "group": "cosmos-2251-debris",
        "lat": 39.21804301061718,
        "lon": 9.958798213931258,
        "alt_km": 775.5577729541756,
        "timestamp": "2025-12-27T08:36:18.780302+00:00",
        "meta_object_name": "COSMOS 2251 DEB",
        "meta_object_id": "1993-036AEY",
        "meta_epoch": "2025-12-26T17:19:34.272480",
        "meta_mean_motion": 14.3227655,
        "meta_eccentricity": 0.007302,
        "meta_inclination": 74.0139,
        "meta_ra_of_asc_node": 357.5919,
        "meta_arg_of_pericenter": 127.2117,
        "meta_mean_anomaly": 233.5728,
        "meta_ephemeris_type": 0,
        "meta_classification_type": "U",
        "meta_norad_cat_id": 34969,
        "meta_element_set_no": 999,
        "meta_rev_at_epoch": 65337,
        "meta_bstar": 0.00027741107,
        "meta_mean_motion_dot": 7.45e-06,
        "meta_mean_motion_ddot": 0,
        "tle_line1": "1 34969U 93036AEY 25360.72192445  .00000745  00000+0  27741-3 0  9991",
        "tle_line2": "2 34969  74.0139 357.5919 0073020 127.2117 233.5728 14.32276550653378"
      },
      "geometry": {
        "type": "Point",
        "coordinates": [
          9.958798213931258,
          39.21804301061718
        ]
      }
    },
    {
      "type": "Feature",
      "properties": {
        "norad_id": 34971,
        "name": "COSMOS 2251 DEB",
        "group": "cosmos-2251-debris",
        "lat": 15.77406335599596,
        "lon": 72.55413648581838,
        "alt_km": 672.4295581874549,
        "timestamp": "2025-12-27T08:36:18.780312+00:00",
        "meta_object_name": "COSMOS 2251 DEB",
        "meta_object_id": "1993-036AFA",
        "meta_epoch": "2025-12-26T23:41:25.656000",
        "meta_mean_motion": 14.55655373,
        "meta_eccentricity": 0.0069172,
        "meta_inclination": 73.9782,
        "meta_ra_of_asc_node": 257.9161,
        "meta_arg_of_pericenter": 119.8318,
        "meta_mean_anomaly": 257.3481,
        "meta_ephemeris_type": 0,
        "meta_classification_type": "U",
        "meta_norad_cat_id": 34971,
        "meta_element_set_no": 999,
        "meta_rev_at_epoch": 66380,
        "meta_bstar": 0.00018757,
        "meta_mean_motion_dot": 8.16e-06,
        "meta_mean_motion_ddot": 0,
        "tle_line1": "1 34971U 93036AFA 25360.98710250  .00000816  00000+0  18757-3 0  9998",
        "tle_line2": "2 34971  73.9782 257.9161 0069172 119.8318 257.3481 14.55655373663806"
      },
      "geometry": {
        "type": "Point",
        "coordinates": [
          72.55413648581838,
          15.77406335599596
        ]
      }
    },
    {
      "type": "Feature",
      "properties": {
        "norad_id": 34972,
        "name": "COSMOS 2251 DEB",
        "group": "cosmos-2251-debris",
        "lat": -60.98494150010765,
        "lon": -127.52440896644987,
        "alt_km": 649.3218745877166,
        "timestamp": "2025-12-27T08:36:18.780353+00:00",
        "meta_object_name": "COSMOS 2251 DEB",
        "meta_object_id": "1993-036AFB",
        "meta_epoch": "2025-12-26T12:37:34.370400",
        "meta_mean_motion": 14.7310501,
        "meta_eccentricity": 0.0032419,
        "meta_inclination": 73.9877,
        "meta_ra_of_asc_node": 22.9204,
        "meta_arg_of_pericenter": 179.2872,
        "meta_mean_anomaly": 332.9317,
        "meta_ephemeris_type": 0,
        "meta_classification_type": "U",
        "meta_norad_cat_id": 34972,
        "meta_element_set_no": 999,
        "meta_rev_at_epoch": 87853,
        "meta_bstar": 0.0013355,
        "meta_mean_motion_dot": 8.649e-05,
        "meta_mean_motion_ddot": 0,
        "tle_line1": "1 34972U 93036AFB 25360.52609225  .00008649  00000+0  13355-2 0  9998",
        "tle_line2": "2 34972  73.9877  22.9204 0032419 179.2872 332.9317 14.73105010878533"
      },
      "geometry": {
        "type": "Point",
        "coordinates": [
          -127.52440896644987,
          -60.98494150010765
        ]
      }
    }
  ]
}